[{"OBJECT_NAME":"JCSAT-13","OBJECT_ID":"2012-023A","EPOCH":"2026-03-04T17:48:38.687616","MEAN_MOTION":1.00272411,"ECCENTRICITY":0.0002229,"INCLINATION":0.0351,"RA_OF_ASC_NODE":266.236,"ARG_OF_PERICENTER":121.6332,"MEAN_ANOMALY":165.7766,"EPHEMERIS_TYPE":0,"CLASSIFICATION_TYPE":"U","NORAD_CAT_ID":38331,"ELEMENT_SET_NO":999,"REV_AT_EPOCH":5049,"BSTAR":0,"MEAN_MOTION_DOT":-3.67e-6,"MEAN_MOTION_DDOT":0},{"OBJECT_NAME":"VINASAT-2","OBJECT_ID":"2012-023B","EPOCH":"2026-03-04T17:32:38.522688","MEAN_MOTION":1.00270133,"ECCENTRICITY":0.0002915,"INCLINATION":0.0516,"RA_OF_ASC_NODE":302.7079,"ARG_OF_PERICENTER":60.6646,"MEAN_ANOMALY":194.0813,"EPHEMERIS_TYPE":0,"CLASSIFICATION_TYPE":"U","NORAD_CAT_ID":38332,"ELEMENT_SET_NO":999,"REV_AT_EPOCH":4561,"BSTAR":0,"MEAN_MOTION_DOT":-3.4e-6,"MEAN_MOTION_DDOT":0},{"OBJECT_NAME":"NIMIQ 6","OBJECT_ID":"2012-026A","EPOCH":"2026-03-04T07:20:38.672160","MEAN_MOTION":1.0027097,"ECCENTRICITY":0.00026237,"INCLINATION":0.0556,"RA_OF_ASC_NODE":279.8002,"ARG_OF_PERICENTER":59.4407,"MEAN_ANOMALY":201.8624,"EPHEMERIS_TYPE":0,"CLASSIFICATION_TYPE":"U","NORAD_CAT_ID":38342,"ELEMENT_SET_NO":999,"REV_AT_EPOCH":4936,"BSTAR":0,"MEAN_MOTION_DOT":-1.85e-6,"MEAN_MOTION_DDOT":0},{"OBJECT_NAME":"ZHONGXING-2A","OBJECT_ID":"2012-028A","EPOCH":"2026-03-04T21:54:14.404608","MEAN_MOTION":1.00272613,"ECCENTRICITY":0.000123,"INCLINATION":1.1849,"RA_OF_ASC_NODE":85.3571,"ARG_OF_PERICENTER":233.7036,"MEAN_ANOMALY":270.4056,"EPHEMERIS_TYPE":0,"CLASSIFICATION_TYPE":"U","NORAD_CAT_ID":38352,"ELEMENT_SET_NO":999,"REV_AT_EPOCH":5025,"BSTAR":0,"MEAN_MOTION_DOT":-3.02e-6,"MEAN_MOTION_DDOT":0},{"OBJECT_NAME":"INTELSAT 19 (IS-19)","OBJECT_ID":"2012-030A","EPOCH":"2026-03-04T14:44:38.804928","MEAN_MOTION":1.00270205,"ECCENTRICITY":0.0003158,"INCLINATION":0.0251,"RA_OF_ASC_NODE":148.6726,"ARG_OF_PERICENTER":213.0614,"MEAN_ANOMALY":187.8067,"EPHEMERIS_TYPE":0,"CLASSIFICATION_TYPE":"U","NORAD_CAT_ID":38356,"ELEMENT_SET_NO":999,"REV_AT_EPOCH":4940,"BSTAR":0,"MEAN_MOTION_DOT":0,"MEAN_MOTION_DDOT":0},{"OBJECT_NAME":"ECHOSTAR 17","OBJECT_ID":"2012-035A","EPOCH":"2026-03-04T08:33:38.625984","MEAN_MOTION":1.00272202,"ECCENTRICITY":0.00020155,"INCLINATION":0.0204,"RA_OF_ASC_NODE":131.6502,"ARG_OF_PERICENTER":212.8261,"MEAN_ANOMALY":198.9285,"EPHEMERIS_TYPE":0,"CLASSIFICATION_TYPE":"U","NORAD_CAT_ID":38551,"ELEMENT_SET_NO":999,"REV_AT_EPOCH":5001,"BSTAR":0,"MEAN_MOTION_DOT":-8.7e-7,"MEAN_MOTION_DDOT":0},{"OBJECT_NAME":"METEOSAT-10 (MSG-3)","OBJECT_ID":"2012-035B","EPOCH":"2026-03-04T09:10:38.507232","MEAN_MOTION":1.0027742,"ECCENTRICITY":0.00024971,"INCLINATION":4.4237,"RA_OF_ASC_NODE":61.4637,"ARG_OF_PERICENTER":294.9203,"MEAN_ANOMALY":303.69,"EPHEMERIS_TYPE":0,"CLASSIFICATION_TYPE":"U","NORAD_CAT_ID":38552,"ELEMENT_SET_NO":999,"REV_AT_EPOCH":4980,"BSTAR":0,"MEAN_MOTION_DOT":-1.3e-7,"MEAN_MOTION_DDOT":0},{"OBJECT_NAME":"SES-5","OBJECT_ID":"2012-036A","EPOCH":"2026-03-04T09:02:38.798880","MEAN_MOTION":1.00272007,"ECCENTRICITY":0.00020137,"INCLINATION":0.0601,"RA_OF_ASC_NODE":311.183,"ARG_OF_PERICENTER":27.7089,"MEAN_ANOMALY":323.8631,"EPHEMERIS_TYPE":0,"CLASSIFICATION_TYPE":"U","NORAD_CAT_ID":38652,"ELEMENT_SET_NO":999,"REV_AT_EPOCH":4340,"BSTAR":0,"MEAN_MOTION_DOT":2.2e-7,"MEAN_MOTION_DDOT":0},{"OBJECT_NAME":"INTELSAT 20 (IS-20)","OBJECT_ID":"2012-043A","EPOCH":"2026-03-04T15:12:23.090112","MEAN_MOTION":1.00272783,"ECCENTRICITY":0.0002415,"INCLINATION":0.0219,"RA_OF_ASC_NODE":130.7491,"ARG_OF_PERICENTER":35.5488,"MEAN_ANOMALY":292.6685,"EPHEMERIS_TYPE":0,"CLASSIFICATION_TYPE":"U","NORAD_CAT_ID":38740,"ELEMENT_SET_NO":999,"REV_AT_EPOCH":4969,"BSTAR":0,"MEAN_MOTION_DOT":-3.5e-7,"MEAN_MOTION_DDOT":0},{"OBJECT_NAME":"HYLAS 2","OBJECT_ID":"2012-043B","EPOCH":"2026-03-04T08:09:38.820096","MEAN_MOTION":1.00270611,"ECCENTRICITY":0.00026664,"INCLINATION":2.1567,"RA_OF_ASC_NODE":82.3867,"ARG_OF_PERICENTER":281.5791,"MEAN_ANOMALY":207.9589,"EPHEMERIS_TYPE":0,"CLASSIFICATION_TYPE":"U","NORAD_CAT_ID":38741,"ELEMENT_SET_NO":999,"REV_AT_EPOCH":4972,"BSTAR":0,"MEAN_MOTION_DOT":-2.68e-6,"MEAN_MOTION_DDOT":0},{"OBJECT_NAME":"INTELSAT 21 (IS-21)","OBJECT_ID":"2012-045A","EPOCH":"2026-03-04T03:36:38.720160","MEAN_MOTION":1.0027081,"ECCENTRICITY":0.00017803,"INCLINATION":0.0358,"RA_OF_ASC_NODE":264.1524,"ARG_OF_PERICENTER":84.9537,"MEAN_ANOMALY":168.9512,"EPHEMERIS_TYPE":0,"CLASSIFICATION_TYPE":"U","NORAD_CAT_ID":38749,"ELEMENT_SET_NO":999,"REV_AT_EPOCH":4947,"BSTAR":0,"MEAN_MOTION_DOT":-2.97e-6,"MEAN_MOTION_DDOT":0},{"OBJECT_NAME":"ASTRA 2F","OBJECT_ID":"2012-051A","EPOCH":"2026-03-04T20:23:34.168128","MEAN_MOTION":1.00275639,"ECCENTRICITY":0.0002507,"INCLINATION":0.0963,"RA_OF_ASC_NODE":260.6963,"ARG_OF_PERICENTER":9.3529,"MEAN_ANOMALY":226.6283,"EPHEMERIS_TYPE":0,"CLASSIFICATION_TYPE":"U","NORAD_CAT_ID":38778,"ELEMENT_SET_NO":999,"REV_AT_EPOCH":4009,"BSTAR":0,"MEAN_MOTION_DOT":1.4e-6,"MEAN_MOTION_DDOT":0},{"OBJECT_NAME":"GSAT-10","OBJECT_ID":"2012-051B","EPOCH":"2026-03-04T18:04:38.818848","MEAN_MOTION":1.0027345,"ECCENTRICITY":0.00043,"INCLINATION":0.0728,"RA_OF_ASC_NODE":263.2748,"ARG_OF_PERICENTER":176.0991,"MEAN_ANOMALY":77.2485,"EPHEMERIS_TYPE":0,"CLASSIFICATION_TYPE":"U","NORAD_CAT_ID":38779,"ELEMENT_SET_NO":999,"REV_AT_EPOCH":4905,"BSTAR":0,"MEAN_MOTION_DOT":-1.75e-6,"MEAN_MOTION_DDOT":0},{"OBJECT_NAME":"INTELSAT 23 (IS-23)","OBJECT_ID":"2012-057A","EPOCH":"2026-03-04T08:14:38.476896","MEAN_MOTION":1.00270663,"ECCENTRICITY":0.00012067,"INCLINATION":0.054,"RA_OF_ASC_NODE":264.4267,"ARG_OF_PERICENTER":79.2529,"MEAN_ANOMALY":249.0735,"EPHEMERIS_TYPE":0,"CLASSIFICATION_TYPE":"U","NORAD_CAT_ID":38867,"ELEMENT_SET_NO":999,"REV_AT_EPOCH":4890,"BSTAR":0,"MEAN_MOTION_DOT":-2.97e-6,"MEAN_MOTION_DDOT":0},{"OBJECT_NAME":"BEIDOU-2 G6","OBJECT_ID":"2012-059A","EPOCH":"2026-03-04T02:27:16.483104","MEAN_MOTION":1.00269514,"ECCENTRICITY":0.00106716,"INCLINATION":4.1554,"RA_OF_ASC_NODE":74.65,"ARG_OF_PERICENTER":304.2337,"MEAN_ANOMALY":263.7683,"EPHEMERIS_TYPE":0,"CLASSIFICATION_TYPE":"U","NORAD_CAT_ID":38953,"ELEMENT_SET_NO":999,"REV_AT_EPOCH":4885,"BSTAR":0,"MEAN_MOTION_DOT":-1.85e-6,"MEAN_MOTION_DDOT":0},{"OBJECT_NAME":"LUCH-5B","OBJECT_ID":"2012-061A","EPOCH":"2026-03-03T21:39:13.674240","MEAN_MOTION":1.00271596,"ECCENTRICITY":0.00043919,"INCLINATION":10.2575,"RA_OF_ASC_NODE":50.9099,"ARG_OF_PERICENTER":223.3648,"MEAN_ANOMALY":195.8772,"EPHEMERIS_TYPE":0,"CLASSIFICATION_TYPE":"U","NORAD_CAT_ID":38977,"ELEMENT_SET_NO":999,"REV_AT_EPOCH":4855,"BSTAR":0,"MEAN_MOTION_DOT":-1.46e-6,"MEAN_MOTION_DDOT":0},{"OBJECT_NAME":"YAMAL 300K","OBJECT_ID":"2012-061B","EPOCH":"2026-03-04T13:40:38.508096","MEAN_MOTION":1.00270784,"ECCENTRICITY":3.07e-5,"INCLINATION":0.0177,"RA_OF_ASC_NODE":171.0789,"ARG_OF_PERICENTER":34.1113,"MEAN_ANOMALY":345.2268,"EPHEMERIS_TYPE":0,"CLASSIFICATION_TYPE":"U","NORAD_CAT_ID":38978,"ELEMENT_SET_NO":999,"REV_AT_EPOCH":4858,"BSTAR":0,"MEAN_MOTION_DOT":6.0e-7,"MEAN_MOTION_DDOT":0}]
